{
  "type": "FeatureCollection",
  "features": [
    {
      "type": "Feature",
      "properties": {
        "norad_id": 28051,
        "name": "IRS-P6 (RESOURCESAT-1)",
        "group": "resource",
        "lat": 65.2949314705208,
        "lon": -128.97807256890079,
        "alt_km": 735.2252800431543,
        "timestamp": "2025-12-18T13:51:49.317057+00:00",
        "meta_object_name": "IRS-P6 (RESOURCESAT-1)",
        "meta_object_id": "2003-046A",
        "meta_epoch": "2025-12-18T08:22:10.702272",
        "meta_mean_motion": 14.36077289,
        "meta_eccentricity": 0.00644641,
        "meta_inclination": 98.2176,
        "meta_ra_of_asc_node": 32.4964,
        "meta_arg_of_pericenter": 163.8983,
        "meta_mean_anomaly": 207.2022,
        "meta_ephemeris_type": 0,
        "meta_classification_type": "U",
        "meta_norad_cat_id": 28051,
        "meta_element_set_no": 999,
        "meta_rev_at_epoch": 15457,
        "meta_bstar": 5.8864361e-05,
        "meta_mean_motion_dot": 1.35e-06,
        "meta_mean_motion_ddot": 0,
        "tle_line1": "1 28051U 03046A   25352.34873498  .00000135  00000+0  58864-4 0  9995",
        "tle_line2": "2 28051  98.2176  32.4964 0064464 163.8983 207.2022 14.36077289154575"
      },
      "geometry": {
        "type": "Point",
        "coordinates": [
          -128.97807256890079,
          65.2949314705208
        ]
      }
    },
    {
      "type": "Feature",
      "properties": {
        "norad_id": 28220,
        "name": "SHIYAN-1 (SY-1)",
        "group": "resource",
        "lat": 57.84460750543697,
        "lon": -112.78843415058614,
        "alt_km": 479.00727873184405,
        "timestamp": "2025-12-18T13:51:49.317070+00:00",
        "meta_object_name": "SHIYAN-1 (SY-1)",
        "meta_object_id": "2004-012A",
        "meta_epoch": "2025-12-18T03:54:23.883552",
        "meta_mean_motion": 15.28283711,
        "meta_eccentricity": 0.00052988,
        "meta_inclination": 97.8935,
        "meta_ra_of_asc_node": 54.0219,
        "meta_arg_of_pericenter": 303.7952,
        "meta_mean_anomaly": 56.2781,
        "meta_ephemeris_type": 0,
        "meta_classification_type": "U",
        "meta_norad_cat_id": 28220,
        "meta_element_set_no": 999,
        "meta_rev_at_epoch": 18339,
        "meta_bstar": 0.00038993119,
        "meta_mean_motion_dot": 0.0001067,
        "meta_mean_motion_ddot": 0,
        "tle_line1": "1 28220U 04012A   25352.16277643  .00010670  00000+0  38993-3 0  9992",
        "tle_line2": "2 28220  97.8935  54.0219 0005298 303.7952  56.2781 15.28283711183392"
      },
      "geometry": {
        "type": "Point",
        "coordinates": [
          -112.78843415058614,
          57.84460750543697
        ]
      }
    },
    {
      "type": "Feature",
      "properties": {
        "norad_id": 28376,
        "name": "AURA",
        "group": "resource",
        "lat": -3.037692936501256,
        "lon": 122.38657472763009,
        "alt_km": 693.4594197880706,
        "timestamp": "2025-12-18T13:51:49.317082+00:00",
        "meta_object_name": "AURA",
        "meta_object_id": "2004-026A",
        "meta_epoch": "2025-12-18T04:48:37.480320",
        "meta_mean_motion": 14.609593,
        "meta_eccentricity": 0.00013318,
        "meta_inclination": 98.3191,
        "meta_ra_of_asc_node": 302.4525,
        "meta_arg_of_pericenter": 93.3284,
        "meta_mean_anomaly": 266.8068,
        "meta_ephemeris_type": 0,
        "meta_classification_type": "U",
        "meta_norad_cat_id": 28376,
        "meta_element_set_no": 999,
        "meta_rev_at_epoch": 13978,
        "meta_bstar": 0.00018287239,
        "meta_mean_motion_dot": 8.48e-06,
        "meta_mean_motion_ddot": 0,
        "tle_line1": "1 28376U 04026A   25352.20043380  .00000848  00000+0  18287-3 0  9993",
        "tle_line2": "2 28376  98.3191 302.4525 0001331  93.3284 266.8068 14.60959300139788"
      },
      "geometry": {
        "type": "Point",
        "coordinates": [
          122.38657472763009,
          -3.037692936501256
        ]
      }
    },
    {
      "type": "Feature",
      "properties": {
        "norad_id": 28649,
        "name": "IRS-P5 (CARTOSAT-1)",
        "group": "resource",
        "lat": -65.11710313583806,
        "lon": 35.34509412322422,
        "alt_km": 604.0895477798458,
        "timestamp": "2025-12-18T13:51:49.317094+00:00",
        "meta_object_name": "IRS-P5 (CARTOSAT-1)",
        "meta_object_id": "2005-017A",
        "meta_epoch": "2025-12-18T07:42:54.971712",
        "meta_mean_motion": 14.90423643,
        "meta_eccentricity": 8.869e-05,
        "meta_inclination": 97.5488,
        "meta_ra_of_asc_node": 18.4873,
        "meta_arg_of_pericenter": 47.1352,
        "meta_mean_anomaly": 312.9941,
        "meta_ephemeris_type": 0,
        "meta_classification_type": "U",
        "meta_norad_cat_id": 28649,
        "meta_element_set_no": 999,
        "meta_rev_at_epoch": 11687,
        "meta_bstar": 0.00013310517,
        "meta_mean_motion_dot": 1.245e-05,
        "meta_mean_motion_ddot": 0,
        "tle_line1": "1 28649U 05017A   25352.32146958  .00001245  00000+0  13311-3 0  9990",
        "tle_line2": "2 28649  97.5488  18.4873 0000886  47.1352 312.9941 14.90423643116875"
      },
      "geometry": {
        "type": "Point",
        "coordinates": [
          35.34509412322422,
          -65.11710313583806
        ]
      }
    },
    {
      "type": "Feature",
      "properties": {
        "norad_id": 28893,
        "name": "SINAH 1",
        "group": "resource",
        "lat": 81.39456984499486,
        "lon": 14.888838848573533,
        "alt_km": 663.1739370261666,
        "timestamp": "2025-12-18T13:51:49.317131+00:00",
        "meta_object_name": "SINAH 1",
        "meta_object_id": "2005-043D",
        "meta_epoch": "2025-12-18T06:52:55.722720",
        "meta_mean_motion": 14.6396848,
        "meta_eccentricity": 0.00155678,
        "meta_inclination": 98.2606,
        "meta_ra_of_asc_node": 120.8589,
        "meta_arg_of_pericenter": 120.713,
        "meta_mean_anomaly": 239.5608,
        "meta_ephemeris_type": 0,
        "meta_classification_type": "U",
        "meta_norad_cat_id": 28893,
        "meta_element_set_no": 999,
        "meta_rev_at_epoch": 7405,
        "meta_bstar": 7.815659e-05,
        "meta_mean_motion_dot": 3.61e-06,
        "meta_mean_motion_ddot": 0,
        "tle_line1": "1 28893U 05043D   25352.28675605  .00000361  00000+0  78157-4 0  9999",
        "tle_line2": "2 28893  98.2606 120.8589 0015567 120.7130 239.5608 14.63968480 74052"
      },
      "geometry": {
        "type": "Point",
        "coordinates": [
          14.888838848573533,
          81.39456984499486
        ]
      }
    },
    {
      "type": "Feature",
      "properties": {
        "norad_id": 29079,
        "name": "EROS B",
        "group": "resource",
        "lat": 29.583336515430485,
        "lon": -66.36252792598397,
        "alt_km": 359.28038503969856,
        "timestamp": "2025-12-18T13:51:49.317146+00:00",
        "meta_object_name": "EROS B",
        "meta_object_id": "2006-014A",
        "meta_epoch": "2025-12-18T07:06:28.865952",
        "meta_mean_motion": 15.70010863,
        "meta_eccentricity": 0.00031435,
        "meta_inclination": 97.3463,
        "meta_ra_of_asc_node": 109.1416,
        "meta_arg_of_pericenter": 310.9662,
        "meta_mean_anomaly": 49.1328,
        "meta_ephemeris_type": 0,
        "meta_classification_type": "U",
        "meta_norad_cat_id": 29079,
        "meta_element_set_no": 999,
        "meta_rev_at_epoch": 9167,
        "meta_bstar": 0.0013477145,
        "meta_mean_motion_dot": 0.00164609,
        "meta_mean_motion_ddot": 0,
        "tle_line1": "1 29079U 06014A   25352.29616743  .00164609  00000+0  13477-2 0  9992",
        "tle_line2": "2 29079  97.3463 109.1416 0003143 310.9662  49.1328 15.70010863 91672"
      },
      "geometry": {
        "type": "Point",
        "coordinates": [
          -66.36252792598397,
          29.583336515430485
        ]
      }
    },
    {
      "type": "Feature",
      "properties": {
        "norad_id": 29228,
        "name": "RESURS-DK 1",
        "group": "resource",
        "lat": -38.61391112790563,
        "lon": 69.77716105511615,
        "alt_km": 533.3053129508917,
        "timestamp": "2025-12-18T13:51:49.317159+00:00",
        "meta_object_name": "RESURS-DK 1",
        "meta_object_id": "2006-021A",
        "meta_epoch": "2025-12-18T06:06:34.727904",
        "meta_mean_motion": 15.121919,
        "meta_eccentricity": 0.00068951,
        "meta_inclination": 69.9337,
        "meta_ra_of_asc_node": 87.5863,
        "meta_arg_of_pericenter": 254.6917,
        "meta_mean_anomaly": 105.3487,
        "meta_ephemeris_type": 0,
        "meta_classification_type": "U",
        "meta_norad_cat_id": 29228,
        "meta_element_set_no": 999,
        "meta_rev_at_epoch": 7521,
        "meta_bstar": 0.00013720714,
        "meta_mean_motion_dot": 2.267e-05,
        "meta_mean_motion_ddot": 0,
        "tle_line1": "1 29228U 06021A   25352.25456861  .00002267  00000+0  13721-3 0  9999",
        "tle_line2": "2 29228  69.9337  87.5863 0006895 254.6917 105.3487 15.12191900 75213"
      },
      "geometry": {
        "type": "Point",
        "coordinates": [
          69.77716105511615,
          -38.61391112790563
        ]
      }
    }
  ]
}